      2.10          N: GNSS NAV DATA                        RINEX VERSION / TYPE
fic2rin                                 11/14/2019 00:18:15 PGM / RUN BY / DATE
                                                            END OF HEADER
24 19 11 13 20  0  0.0-4.833564162254e-06-4.547473508865e-13 0.000000000000e+00
    1.670000000000e+02 7.853125000000e+01 4.799128474393e-09 1.228671266679e+00
    4.304572939873e-06 9.048726642504e-03 1.211836934090e-05 5.153682962418e+03
    3.312000000000e+05-7.823109626770e-08-2.906791403827e+00 1.247972249985e-07
    9.380490070378e-01 1.330625000000e+02 6.220260510475e-01-8.183555163635e-09
   -3.321566928024e-10 1.000000000000e+00 2.079000000000e+03 0.000000000000e+00
    4.850000000000e+00 0.000000000000e+00 2.793967723846e-09 1.670000000000e+02
    3.261600000000e+05 4.000000000000e+00
24 19 11 13 19 59 44.0-4.841946065426e-06-5.684341886081e-13 0.000000000000e+00
    1.200000000000e+01 7.853125000000e+01 4.799485632127e-09 1.226336417240e+00
    4.304572939873e-06 9.048728737980e-03 1.211836934090e-05 5.153682956696e+03
    3.311840000000e+05-7.823109626770e-08-2.906791272164e+00 1.247972249985e-07
    9.380489997232e-01 1.330625000000e+02 6.220272360111e-01-8.183912321369e-09
   -3.321566928024e-10 1.000000000000e+00 2.079000000000e+03 0.000000000000e+00
    2.400000000000e+00 0.000000000000e+00 2.793967723846e-09 1.200000000000e+01
    3.273300000000e+05 4.000000000000e+00
 4 19 11 13 20  0  0.0-8.724164217710e-06-3.979039320257e-12 0.000000000000e+00
    5.300000000000e+01-2.534375000000e+01 4.900561270904e-09 1.703737392187e-01
   -1.290813088417e-06 1.310291234404e-03 7.810071110725e-06 5.150595338821e+03
    3.312000000000e+05 2.235174179077e-08 2.416959276650e+00 4.097819328308e-08
    9.598528749821e-01 2.310937500000e+02-1.278455648969e+00-8.144624970607e-09
   -5.110927176346e-10 1.000000000000e+00 2.079000000000e+03 0.000000000000e+00
    4.800000000000e+01 6.300000000000e+01-4.190951585770e-09 3.090000000000e+02
    3.273600000000e+05 4.000000000000e+00
 7 19 11 13 19 59 44.0-1.480993814766e-04-8.185452315956e-12 0.000000000000e+00
    0.000000000000e+00 9.437500000000e+01 4.486615456971e-09 2.882863817707e-01
    5.040317773819e-06 1.317877182737e-02 1.104548573494e-05 5.153730762482e+03
    3.311840000000e+05-1.676380634308e-08-2.837996120216e+00 1.601874828339e-07
    9.548207410764e-01 1.629687500000e+02-2.423746643074e+00-8.121052560151e-09
   -2.389385241772e-10 1.000000000000e+00 2.079000000000e+03 0.000000000000e+00
    2.400000000000e+00 0.000000000000e+00-1.117587089539e-08 0.000000000000e+00
    3.282000000000e+05 4.000000000000e+00
 7 19 11 13 21 59 44.0-1.481580547988e-04-8.185452315956e-12 0.000000000000e+00
    6.000000000000e+00 8.787500000000e+01 4.521616914922e-09 1.338417660594e+00
    4.734843969345e-06 1.317836239468e-02 1.123361289501e-05 5.153730504990e+03
    3.383840000000e+05-1.583248376846e-07-2.838054557941e+00 1.769512891769e-07
    9.548189446130e-01 1.635625000000e+02-2.423731285360e+00-8.080336578452e-09
   -2.203663219990e-10 1.000000000000e+00 2.079000000000e+03 0.000000000000e+00
    2.400000000000e+00 0.000000000000e+00-1.117587089539e-08 6.000000000000e+00
    3.312000000000e+05 4.000000000000e+00
24 19 11 13 21 59 44.0-4.845671355724e-06-5.684341886081e-13 0.000000000000e+00
    5.400000000000e+01 8.918750000000e+01 4.775198906202e-09 2.276671606362e+00
    4.585832357407e-06 9.049353539012e-03 1.237727701664e-05 5.153680114746e+03
    3.383840000000e+05-2.179294824600e-07-2.906850580326e+00-1.415610313416e-07
    9.380479347189e-01 1.272812500000e+02 6.218703380471e-01-7.959617264294e-09
   -1.792931825664e-10 1.000000000000e+00 2.079000000000e+03 0.000000000000e+00
    2.400000000000e+00 0.000000000000e+00 2.793967723846e-09 5.400000000000e+01
    3.312000000000e+05 4.000000000000e+00
 2 19 11 13 22  0  0.0-3.461558371782e-04-7.730704965070e-12 0.000000000000e+00
    8.900000000000e+01-9.162500000000e+01 4.018024509706e-09 2.312815030967e+00
   -4.654750227928e-06 1.935847243294e-02 1.229159533978e-05 5.153580787659e+03
    3.384000000000e+05 2.477318048477e-07 2.247882616191e-01-1.508742570877e-07
    9.571578741303e-01 1.338437500000e+02-1.701264160938e+00-7.398522463872e-09
    2.657253542419e-10 1.000000000000e+00 2.079000000000e+03 0.000000000000e+00
    2.400000000000e+00 0.000000000000e+00-1.769512891769e-08 8.900000000000e+01
    3.312000000000e+05 4.000000000000e+00
 1 19 11 13 22  0  0.0-1.962776295841e-04-1.273292582482e-11 0.000000000000e+00
    7.200000000000e+01-5.687500000000e+01 3.721940748057e-09 2.017551455985e+00
   -2.989545464516e-06 9.152375976555e-03 1.170672476292e-05 5.153649007797e+03
    3.384000000000e+05-1.564621925354e-07 2.969990142182e-01-1.210719347000e-07
    9.780635835198e-01 1.635000000000e+02 7.643405914079e-01-7.556029024652e-09
    3.117987019532e-10 1.000000000000e+00 2.079000000000e+03 0.000000000000e+00
    2.400000000000e+00 0.000000000000e+00 5.587935447693e-09 7.200000000000e+01
    3.312000000000e+05 4.000000000000e+00
 5 19 11 13 22  0  0.0-3.419816493988e-06-4.547473508865e-13 0.000000000000e+00
    4.500000000000e+01 2.662500000000e+01 5.038066998570e-09-1.421344642149e+00
    1.445412635803e-06 5.838360870257e-03 5.897134542465e-06 5.153538114548e+03
    3.384000000000e+05 1.359730958939e-07 1.309234833857e+00-1.490116119385e-08
    9.505588291507e-01 2.542500000000e+02 8.013579939942e-01-8.217842306118e-09
    5.582375385485e-10 1.000000000000e+00 2.079000000000e+03 0.000000000000e+00
    2.400000000000e+00 0.000000000000e+00-1.117587089539e-08 4.500000000000e+01
    3.312000000000e+05 4.000000000000e+00
 3 19 11 13 22  0  0.0-3.624428063631e-05-5.798028723802e-12 0.000000000000e+00
    6.000000000000e+01 3.003125000000e+01 4.779127641278e-09 8.449768948736e-01
    1.337379217148e-06 2.607471076772e-03 6.103888154030e-06 5.153665184021e+03
    3.384000000000e+05-2.235174179077e-08 1.338438523268e+00 4.284083843231e-08
    9.636587295113e-01 2.635000000000e+02 7.883159066932e-01-8.139624762329e-09
    4.457328522767e-10 1.000000000000e+00 2.079000000000e+03 0.000000000000e+00
    2.400000000000e+00 0.000000000000e+00 2.328306436539e-09 6.000000000000e+01
    3.312000000000e+05 4.000000000000e+00
16 19 11 13 22  0  0.0-9.286170825362e-05-3.751665644813e-12 0.000000000000e+00
    5.400000000000e+01 6.465625000000e+01 4.243391039984e-09-1.123956465390e+00
    3.458932042122e-06 1.092638296541e-02 1.799315214157e-06 5.153667051315e+03
    3.384000000000e+05 2.384185791016e-07-1.715961597100e+00 0.000000000000e+00
    9.808060750813e-01 3.545937500000e+02 5.800139652583e-01-8.189626845116e-09
    1.396486740707e-10 1.000000000000e+00 2.079000000000e+03 0.000000000000e+00
    2.400000000000e+00 0.000000000000e+00-1.024454832077e-08 5.400000000000e+01
    3.312000000000e+05 4.000000000000e+00
 9 19 11 13 22  0  0.0-8.258782327175e-05-9.777068044059e-12 0.000000000000e+00
    4.300000000000e+01-2.831250000000e+01 5.028066582012e-09-1.587102993324e+00
   -1.356005668640e-06 1.625628327020e-03 7.295981049538e-06 5.153557119370e+03
    3.384000000000e+05-1.676380634308e-08 2.370450874108e+00 4.842877388000e-08
    9.524725337327e-01 2.373750000000e+02 1.673885950446e+00-8.160339910912e-09
   -4.578762152394e-10 1.000000000000e+00 2.079000000000e+03 0.000000000000e+00
    2.400000000000e+00 0.000000000000e+00 1.396983861923e-09 4.300000000000e+01
    3.312000000000e+05 4.000000000000e+00
10 19 11 13 22  0  0.0-1.333816908300e-04-1.477928890381e-11 0.000000000000e+00
    7.400000000000e+01 2.300000000000e+01 4.781270587683e-09 3.537169728174e-02
    1.255422830582e-06 5.040140007623e-03 6.247311830521e-06 5.153655754089e+03
    3.384000000000e+05 4.656612873077e-08 1.335291346141e+00 4.284083843231e-08
    9.636474387095e-01 2.606562500000e+02-2.740569718701e+00-8.147125074747e-09
    4.835915721015e-10 1.000000000000e+00 2.079000000000e+03 0.000000000000e+00
    2.400000000000e+00 0.000000000000e+00 1.862645149231e-09 7.400000000000e+01
    3.312000000000e+05 4.000000000000e+00
15 19 11 13 22  0  0.0-2.728705294430e-04 2.728484105319e-12 0.000000000000e+00
    4.000000000000e+01-3.453125000000e+01 5.611305161955e-09-2.970655124761e+00
   -1.983717083931e-06 1.199547050055e-02 6.617978215218e-06 5.153588439941e+03
    3.384000000000e+05 5.029141902924e-08 2.286059735381e+00-2.179294824600e-07
    9.279058294252e-01 2.351250000000e+02 8.374212828720e-01-8.319989418098e-09
   -4.321608583773e-10 1.000000000000e+00 2.079000000000e+03 0.000000000000e+00
    2.400000000000e+00 0.000000000000e+00-1.117587089539e-08 4.000000000000e+01
    3.312000000000e+05 4.000000000000e+00
 8 19 11 13 22  0  0.0-1.326296478510e-05-1.250555214938e-12 0.000000000000e+00
    1.060000000000e+02-1.053750000000e+02 4.304107854797e-09-1.860477719451e+00
   -5.433335900307e-06 4.673665040173e-03 4.094094038010e-06 5.153584672928e+03
    3.384000000000e+05-6.519258022308e-08-7.705846607785e-01-4.842877388000e-08
    9.702054985762e-01 3.070000000000e+02-2.378383057315e-01-8.169626012001e-09
   -2.753686130652e-10 1.000000000000e+00 2.079000000000e+03 0.000000000000e+00
    2.400000000000e+00 0.000000000000e+00 5.122274160385e-09 1.060000000000e+02
    3.312000000000e+05 4.000000000000e+00
 6 19 11 13 22  0  0.0-1.226905733347e-04-1.193711796077e-11 0.000000000000e+00
    6.300000000000e+01-6.246875000000e+01 3.637294365053e-09 2.396965513818e+00
   -3.155320882797e-06 1.528491382487e-03 1.251325011253e-05 5.153702857971e+03
    3.384000000000e+05-2.607703208923e-08 2.887385507310e-01 3.911554813385e-08
    9.776795572836e-01 1.449375000000e+02-1.201008714651e+00-7.476740007661e-09
    3.435857402966e-10 1.000000000000e+00 2.079000000000e+03 0.000000000000e+00
    3.400000000000e+00 0.000000000000e+00 4.656612873077e-09 6.300000000000e+01
    3.312000000000e+05 4.000000000000e+00
